{
  "type": "FeatureCollection",
  "features": [
    {
      "type": "Feature",
      "properties": {
        "norad_id": 33972,
        "name": "COSMOS 2251 DEB",
        "group": "cosmos-2251-debris",
        "lat": 45.41315511231549,
        "lon": -133.69483318757116,
        "alt_km": 689.6538539797784,
        "timestamp": "2025-12-02T13:52:17.654475+00:00",
        "meta_object_name": "COSMOS 2251 DEB",
        "meta_object_id": "1993-036FF",
        "meta_epoch": "2025-12-02T02:39:00.139392",
        "meta_mean_motion": 14.36101943,
        "meta_eccentricity": 0.01228619,
        "meta_inclination": 73.9949,
        "meta_ra_of_asc_node": 210.2361,
        "meta_arg_of_pericenter": 20.3713,
        "meta_mean_anomaly": 130.5233,
        "meta_ephemeris_type": 0,
        "meta_classification_type": "U",
        "meta_norad_cat_id": 33972,
        "meta_element_set_no": 999,
        "meta_rev_at_epoch": 86921,
        "meta_bstar": 0.0012858342,
        "meta_mean_motion_dot": 4.055e-05,
        "meta_mean_motion_ddot": 0,
        "tle_line1": "1 33972U 93036FF  25336.11041828  .00004055  00000+0  12858-2 0  9998",
        "tle_line2": "2 33972  73.9949 210.2361 0122861  20.3713 130.5233 14.36101943869213"
      },
      "geometry": {
        "type": "Point",
        "coordinates": [
          -133.69483318757116,
          45.41315511231549
        ]
      }
    },
    {
      "type": "Feature",
      "properties": {
        "norad_id": 33973,
        "name": "COSMOS 2251 DEB",
        "group": "cosmos-2251-debris",
        "lat": -0.8400580792954081,
        "lon": -57.893604408470345,
        "alt_km": 760.9038815189269,
        "timestamp": "2025-12-02T13:52:17.654485+00:00",
        "meta_object_name": "COSMOS 2251 DEB",
        "meta_object_id": "1993-036FG",
        "meta_epoch": "2025-12-02T03:53:20.248224",
        "meta_mean_motion": 14.45371129,
        "meta_eccentricity": 0.00470943,
        "meta_inclination": 74.0067,
        "meta_ra_of_asc_node": 122.6418,
        "meta_arg_of_pericenter": 303.0611,
        "meta_mean_anomaly": 234.747,
        "meta_ephemeris_type": 0,
        "meta_classification_type": "U",
        "meta_norad_cat_id": 33973,
        "meta_element_set_no": 999,
        "meta_rev_at_epoch": 88447,
        "meta_bstar": 0.00017479115,
        "meta_mean_motion_dot": 5.95e-06,
        "meta_mean_motion_ddot": 0,
        "tle_line1": "1 33973U 93036FG  25336.16203991  .00000595  00000+0  17479-3 0  9995",
        "tle_line2": "2 33973  74.0067 122.6418 0047094 303.0611 234.7470 14.45371129884478"
      },
      "geometry": {
        "type": "Point",
        "coordinates": [
          -57.893604408470345,
          -0.8400580792954081
        ]
      }
    },
    {
      "type": "Feature",
      "properties": {
        "norad_id": 33975,
        "name": "COSMOS 2251 DEB",
        "group": "cosmos-2251-debris",
        "lat": -34.05018311794357,
        "lon": 90.98621875498654,
        "alt_km": 889.597805700746,
        "timestamp": "2025-12-02T13:52:17.654495+00:00",
        "meta_object_name": "COSMOS 2251 DEB",
        "meta_object_id": "1993-036FJ",
        "meta_epoch": "2025-12-02T02:02:33.375264",
        "meta_mean_motion": 14.00483553,
        "meta_eccentricity": 0.01915045,
        "meta_inclination": 73.8011,
        "meta_ra_of_asc_node": 103.1812,
        "meta_arg_of_pericenter": 237.7062,
        "meta_mean_anomaly": 120.5396,
        "meta_ephemeris_type": 0,
        "meta_classification_type": "U",
        "meta_norad_cat_id": 33975,
        "meta_element_set_no": 999,
        "meta_rev_at_epoch": 85680,
        "meta_bstar": 0.00080774359,
        "meta_mean_motion_dot": 1.378e-05,
        "meta_mean_motion_ddot": 0,
        "tle_line1": "1 33975U 93036FJ  25336.08510851  .00001378  00000+0  80774-3 0  9992",
        "tle_line2": "2 33975  73.8011 103.1812 0191504 237.7062 120.5396 14.00483553856808"
      },
      "geometry": {
        "type": "Point",
        "coordinates": [
          90.98621875498654,
          -34.05018311794357
        ]
      }
    },
    {
      "type": "Feature",
      "properties": {
        "norad_id": 33980,
        "name": "COSMOS 2251 DEB",
        "group": "cosmos-2251-debris",
        "lat": -14.880674574617498,
        "lon": -96.8726715502368,
        "alt_km": 684.314559759754,
        "timestamp": "2025-12-02T13:52:17.654505+00:00",
        "meta_object_name": "COSMOS 2251 DEB",
        "meta_object_id": "1993-036FP",
        "meta_epoch": "2025-12-02T06:29:36.568032",
        "meta_mean_motion": 14.58528042,
        "meta_eccentricity": 0.00292932,
        "meta_inclination": 74.0213,
        "meta_ra_of_asc_node": 79.3463,
        "meta_arg_of_pericenter": 226.0882,
        "meta_mean_anomaly": 155.9483,
        "meta_ephemeris_type": 0,
        "meta_classification_type": "U",
        "meta_norad_cat_id": 33980,
        "meta_element_set_no": 999,
        "meta_rev_at_epoch": 88642,
        "meta_bstar": 0.0011077113,
        "meta_mean_motion_dot": 5.152e-05,
        "meta_mean_motion_ddot": 0,
        "tle_line1": "1 33980U 93036FP  25336.27056213  .00005152  00000+0  11077-2 0  9999",
        "tle_line2": "2 33980  74.0213  79.3463 0029293 226.0882 155.9483 14.58528042886429"
      },
      "geometry": {
        "type": "Point",
        "coordinates": [
          -96.8726715502368,
          -14.880674574617498
        ]
      }
    },
    {
      "type": "Feature",
      "properties": {
        "norad_id": 33982,
        "name": "COSMOS 2251 DEB",
        "group": "cosmos-2251-debris",
        "lat": -8.272274927145666,
        "lon": 16.91482580871458,
        "alt_km": 682.5510965155308,
        "timestamp": "2025-12-02T13:52:17.654515+00:00",
        "meta_object_name": "COSMOS 2251 DEB",
        "meta_object_id": "1993-036FR",
        "meta_epoch": "2025-12-02T06:00:19.495296",
        "meta_mean_motion": 14.60152241,
        "meta_eccentricity": 0.00748079,
        "meta_inclination": 74.0705,
        "meta_ra_of_asc_node": 19.9187,
        "meta_arg_of_pericenter": 67.536,
        "meta_mean_anomaly": 2.6455,
        "meta_ephemeris_type": 0,
        "meta_classification_type": "U",
        "meta_norad_cat_id": 33982,
        "meta_element_set_no": 999,
        "meta_rev_at_epoch": 89006,
        "meta_bstar": 0.00041820629,
        "meta_mean_motion_dot": 2.064e-05,
        "meta_mean_motion_ddot": 0,
        "tle_line1": "1 33982U 93036FR  25336.25022564  .00002064  00000+0  41821-3 0  9991",
        "tle_line2": "2 33982  74.0705  19.9187 0074807  67.5360   2.6455 14.60152241890069"
      },
      "geometry": {
        "type": "Point",
        "coordinates": [
          16.91482580871458,
          -8.272274927145666
        ]
      }
    },
    {
      "type": "Feature",
      "properties": {
        "norad_id": 33983,
        "name": "COSMOS 2251 DEB",
        "group": "cosmos-2251-debris",
        "lat": -73.75216477106133,
        "lon": 87.20108015925334,
        "alt_km": 715.4464282904582,
        "timestamp": "2025-12-02T13:52:17.654525+00:00",
        "meta_object_name": "COSMOS 2251 DEB",
        "meta_object_id": "1993-036FS",
        "meta_epoch": "2025-12-01T23:55:24.288096",
        "meta_mean_motion": 14.50598811,
        "meta_eccentricity": 0.00214307,
        "meta_inclination": 74.0489,
        "meta_ra_of_asc_node": 167.2216,
        "meta_arg_of_pericenter": 271.2764,
        "meta_mean_anomaly": 208.0557,
        "meta_ephemeris_type": 0,
        "meta_classification_type": "U",
        "meta_norad_cat_id": 33983,
        "meta_element_set_no": 999,
        "meta_rev_at_epoch": 88473,
        "meta_bstar": 0.00056100028,
        "meta_mean_motion_dot": 2.179e-05,
        "meta_mean_motion_ddot": 0,
        "tle_line1": "1 33983U 93036FS  25335.99680889  .00002179  00000+0  56100-3 0  9995",
        "tle_line2": "2 33983  74.0489 167.2216 0021430 271.2764 208.0557 14.50598811884733"
      },
      "geometry": {
        "type": "Point",
        "coordinates": [
          87.20108015925334,
          -73.75216477106133
        ]
      }
    },
    {
      "type": "Feature",
      "properties": {
        "norad_id": 33984,
        "name": "COSMOS 2251 DEB",
        "group": "cosmos-2251-debris",
        "lat": 12.885876620389487,
        "lon": -177.0382135410013,
        "alt_km": 661.2791970821063,
        "timestamp": "2025-12-02T13:52:17.654535+00:00",
        "meta_object_name": "COSMOS 2251 DEB",
        "meta_object_id": "1993-036FT",
        "meta_epoch": "2025-12-02T05:15:53.993088",
        "meta_mean_motion": 14.66212626,
        "meta_eccentricity": 0.00237684,
        "meta_inclination": 74.0102,
        "meta_ra_of_asc_node": 7.4149,
        "meta_arg_of_pericenter": 207.9992,
        "meta_mean_anomaly": 226.5714,
        "meta_ephemeris_type": 0,
        "meta_classification_type": "U",
        "meta_norad_cat_id": 33984,
        "meta_element_set_no": 999,
        "meta_rev_at_epoch": 88912,
        "meta_bstar": 0.00099141895,
        "meta_mean_motion_dot": 5.454e-05,
        "meta_mean_motion_ddot": 0,
        "tle_line1": "1 33984U 93036FT  25336.21937492  .00005454  00000+0  99142-3 0  9999",
        "tle_line2": "2 33984  74.0102   7.4149 0023768 207.9992 226.5714 14.66212626889123"
      },
      "geometry": {
        "type": "Point",
        "coordinates": [
          -177.0382135410013,
          12.885876620389487
        ]
      }
    }
  ]
}